{
  "type": "FeatureCollection",
  "features": [
    {
      "type": "Feature",
      "properties": { "name": "Reference lap (demo GPS trace)", "track": "Portimão" },
      "geometry": {
        "type": "LineString",
        "coordinates": [
          [-8.8879, 37.2315],
          [-8.8865, 37.2319],
          [-8.8848, 37.2324],
          [-8.8832, 37.2321],
          [-8.8818, 37.2312],
          [-8.8812, 37.2298],
          [-8.8815, 37.2284],
          [-8.8828, 37.2272],
          [-8.8845, 37.2265],
          [-8.8862, 37.2264],
          [-8.8878, 37.2271],
          [-8.8888, 37.2283],
          [-8.8891, 37.2297],
          [-8.8886, 37.231],
          [-8.8879, 37.2315]
        ]
      }
    }
  ]
}
